name,a,e,i,om,w,q,ad,per_y,data_arc,condition_code,n_obs_used,H,neo,pha,diameter,extent,albedo,rot_per,GM,BV,UB,IR,spec_B,spec_T,G,moid,class,n,per,ma
,2.992873969279211,0.1345947612824648,10.70723501015849,274.4265699936581,170.79285242104,2.590048811835572,3.395699126722849,5.17774723855927,6011.0,0,453,14.9,N,N,4.168,,0.134,,,,,,,,,1.60695,MBA,0.1903581302747815,1891.172178883775,350.711365288022
,3.249312868757621,0.1048215857321029,5.032304765186961,22.51407310798089,306.5893010400897,2.908714741314719,3.589910996200523,5.85727342747165,8836.0,0,174,16.0,N,N,5.234,,0.028,,,,,,,,,1.90069,OMB,0.1682739068906693,2139.369119384021,109.3394772041568
,2.673918961213161,0.2203409302334075,7.762147093706751,133.3233363016494,90.87747244155418,2.084745169930706,3.263092752495615,4.37250750551398,6221.0,0,286,16.6,N,N,2.545,,0.069,,,,,,,,,1.0936,MBA,0.2254144291632721,1597.058366388981,60.81171121240167
,3.1648392661565,0.0984510658114408,10.21925251630885,93.4067119235048,259.7746879998194,2.853257467281495,3.476421065031506,5.6303538484053,8892.0,0,734,14.0,N,N,8.389,,0.076,,,,,,,,,1.86981,MBA,0.1750558330622006,2056.486743130035,174.5104790223563
,2.644511847312814,0.0171169747020868,9.636852140327637,29.88050287938744,75.9090840118107,2.599245804922992,2.689777889702637,4.30057452248114,8599.0,0.0,671,15.5,N,N,2.892,,0.16,,,,,,,,,1.63055,MBA,0.2291847933840515,1570.784844336237,223.2070218679859
,3.107293014123018,0.1807687721067876,24.41274268732746,64.20513745002125,321.7773803760605,2.545591471384001,3.668994556862035,5.47748901470132,5430.0,0,263,15.2,N,N,5.781,,0.058,,,,,,,,,1.58876,MBA,0.1799412615383038,2000.652862619657,178.1019876828953
Kuppers,2.877900225943572,0.071117122360969,2.214507151301469,29.29363581739294,24.28684462836668,2.673232243432483,3.082568208454662,4.88227010152759,13904.0,0,962,14.7,N,N,3.549,,0.203,4.66,,,,,,,,1.68396,MBA,0.201878688165812,1783.249154582954,46.21997901620382
,2.643387479534216,0.2749927146477783,13.62155158067387,161.0116756003711,105.7701089071489,1.916475180671154,3.37029977839728,4.29783209947723,9566.0,0,353,16.5,N,N,1.579,,0.195,,,,,,,,,0.95285,MBA,0.2293310349390904,1569.783174334058,357.7732751356044
,3.125701688753763,0.1239813691821222,11.29972485269651,27.10799235252928,292.1492527642282,2.7381729137272,3.513230463780326,5.52623683553613,9397.0,0.0,418,14.9,N,N,4.284,,0.055,,,,,,,,,1.75076,MBA,0.178353970830484,2018.45800417957,143.7571558465778
,3.195219925007415,0.1414382523560687,26.32464029165981,328.24613023,209.8485547925355,2.743293602921077,3.647146247093752,5.71162039732412,3518.0,0,95,16.0,N,N,4.07,,0.035,,,,,,,,,1.77348,MBA,0.1725650892046887,2086.169350122635,191.1248227360873
,2.692661505217204,0.2146831315382768,2.223403290654598,174.6541261208867,165.2302066288464,2.114592501104605,3.270730509329803,4.41856089556573,10418.0,0,1005,15.0,N,N,4.787,,0.056,,,,,,,,,1.10516,MBA,0.2230649993658994,1613.879367105382,18.05402424336249
Balam,2.236564358621987,0.1092072702762463,5.380505832298677,295.7041181835887,173.7232049652386,1.992315270219736,2.480813447024238,3.34487815317217,23532.0,0,2270,13.3,N,N,4.663,,0.355,2.80483,,,,,,,,1.00934,MBA,0.2946673206714038,1221.716745446135,71.02466032065364
,3.102239449417127,0.138780481751634,1.321884191714505,156.361626548133,139.8265318882972,2.671709164118095,3.53276973471616,5.46413192836155,8146.0,0,495,15.2,N,N,5.728,,0.045,,,,,,,,,1.65524,MBA,0.1803811284737961,1995.774186834058,133.916150419177
,2.745083844213515,0.3292624720894596,8.018912781002413,244.6361628387889,125.1936824437492,1.841230751574936,3.648936936852094,4.54822166934689,11820.0,0,619,15.5,N,N,3.513,,0.099,,,,,,,,,0.854606,MBA,0.2167058589097065,1661.237964728951,46.48207541813251
,2.744283112392536,0.0901315515855393,12.12925305745336,135.9135052957029,202.0557754219422,2.496936617482604,2.991629607302469,4.54623176279195,1.0,9,9,16.9,N,N,2.84,,0.038,,,,,,,,,1.48988,MBA,0.216800712060984,1660.511151359758,214.4720253583785
Zemka,3.196504783581641,0.1284130125149628,2.03390817728596,55.08585021663983,156.2946359058018,2.786031974803433,3.606977592359848,5.71506587008332,23862.0,0,2399,12.6,N,N,17.192,,0.049,,,,,,,,,1.78066,MBA,0.1724610539533795,2087.427809047931,203.565774758991
,3.011038314938853,0.1460021161856563,12.07469413695212,147.8159131612937,211.2262054746168,2.571420349041688,3.450656280836019,5.22495584981897,7683.0,0,830,14.1,N,N,5.458,,0.113,,,,,,,,,1.57375,MBA,0.1886382032111726,1908.415124146379,194.7372362307271
,2.355539062778675,0.161715277702445,4.797713452581215,5.007370271925536,146.1286165411134,1.974612409102464,2.736465716454886,3.61529439878574,7528.0,0,504,16.5,N,N,2.887,,0.07,,,,,,,,,0.987686,MBA,0.2726268388263477,1320.48627915649,226.0358365790389
,2.667190003197224,0.1458787965242891,13.18957089029889,23.83943068548838,231.6658494228232,2.278103535429198,3.05627647096525,4.35601267063366,9516.0,0,877,15.0,N,N,2.796,,0.248,,,,,,,,,1.28991,MBA,0.2262680019303477,1591.033627948945,55.86744132629045
Kintner,2.75869606743115,0.0323522803999284,6.042278592824063,140.7165672841941,42.61787747897615,2.669445958719438,2.847946176142863,4.58209391141374,8979.0,0,1211,14.0,N,N,8.534,,0.08,,,,,,,,,1.67634,MBA,0.2151039028057495,1673.609801143867,94.3115158913158
,2.320724861896328,0.1702946806829281,3.543346388482016,70.35234839001974,231.3628429423228,1.925517762586761,2.715931961205896,3.53544173676511,7716.0,0,481,16.2,N,N,3.33,,0.058,,,,,,,,,0.911694,MBA,0.2787844792117526,1291.320094353458,104.6223645255888
,2.726118715173878,0.0771728875457529,3.869888905469802,73.62338108601163,336.0279205790175,2.515736262131392,2.936501168216364,4.50116930568074,8508.0,0,754,15.0,N,N,3.261,,0.2,,,,,,,,,1.52622,MBA,0.218971164253617,1644.05208889989,140.0509940618005
,2.655030576282976,0.0320504100546245,22.43066027071276,69.88310681276747,55.82595229555816,2.56993575760554,2.740125394960412,4.32625876983648,6280.0,0,428,15.3,N,N,2.524,,0.277,,,,,,,,,1.61312,MBA,0.2278241630481136,1580.166015682773,88.75356344506007
,3.141177477297327,0.0891326079605798,15.72400747628066,322.4692164634311,35.14824457973898,2.861196136678781,3.421158817915873,5.56732935794466,7563.0,0,373,14.9,N,N,6.628,,0.064,,,,,,,,,1.86704,MBA,0.1770375381081153,2033.467047989286,8.044349452368404
,2.263050968106871,0.0675628768475349,4.681914766332289,202.5571987708624,273.8848507273697,2.110152734248972,2.41594920196477,3.40447151674338,9846.0,0,219,17.3,N,N,1.71,,0.097,,,,,,,,,1.13276,MBA,0.2895093345678448,1243.483221490519,315.2488770149407
,2.245538287418418,0.0674682218660745,2.38127507666581,306.8165335473087,225.6251517271336,2.094035812034107,2.397040762802729,3.36502967778665,7327.0,0,1066,15.7,N,N,1.981,,0.259,,,,,,,,,1.10038,MBA,0.2929027015345235,1229.077089811573,160.907671531803
,2.773323191564096,0.1014743733871041,4.464587014924489,187.2880686709052,123.6751840981917,2.491901958500206,3.054744424627986,4.61858485770328,8414.0,0,284,16.3,N,N,3.366,,0.039,,,,,,,,,1.48039,MBA,0.2134043898151278,1686.938119276122,18.76074898791615
Anpanman,3.162785882174652,0.1273593246438122,2.159877057830141,74.02895268841476,141.0048990049207,2.759975608227904,3.565596156121398,5.6248751801585,10251.0,0,1115,14.0,N,N,8.07,,0.068,,,,,,,,,1.75385,MBA,0.1752263386829116,2054.485659552892,115.334017954991
,2.605983527004678,0.1906693622217206,10.43065604995682,249.9501499208093,55.56140716397535,2.109102309950386,3.10286474405897,4.20693402657597,6239.0,0,115,17.0,N,N,1.873,,0.096,,,,,,,,,1.11306,MBA,0.23428612788819,1536.582653206874,352.7667468535606
,3.110097401403726,0.1392459431218045,15.73109338,353.3388813876576,52.60558195089184,2.677028955544591,3.543165847262862,5.48490598462957,15214.0,0,673,14.1,N,N,4.31,,0.262,3.092,,,,,,,,1.71461,MBA,0.1796979357767645,2003.361910885952,182.7350292260912
,2.777704470509283,0.0905952531912599,11.9834494588026,339.6402576964711,275.7034497668292,2.526057630713,3.029351310305566,4.62953379711443,8505.0,0,351,15.6,N,N,3.402,,0.096,,,,,,,,,1.54649,MBA,0.2128996841932319,1690.937219396047,67.03346315296064
,3.045721569316387,0.0099256042583146,11.46327020604227,234.8432405506679,134.9295069923722,3.01549094233834,3.075952196294435,5.31549238907254,9953.0,0,625,14.3,N,N,5.145,,0.127,,,,,,,,,2.02753,MBA,0.1854252082824504,1941.483595108747,89.18088933524271
,3.038971516049863,0.208071886672567,5.311636271520761,152.0571295297187,323.3502219609115,2.406646979161177,3.67129605293855,5.29783156437354,6341.0,0,282,16.0,N,N,4.331,,0.054,,,,,,,,,1.42572,MBA,0.1860433408256356,1935.032978887434,158.6667425562464
,2.397787347972256,0.194548848939103,3.194101772186477,61.82521726116036,342.1423654031523,1.93130057942351,2.864274116521003,3.71299358341642,10099.0,0,1106,15.2,N,N,2.406,,0.367,,,,,,,,,0.940156,MBA,0.265453268696645,1356.170906342846,225.0326304973664
Malecki,2.341367495081412,0.1451736362432889,6.477240672652979,107.6342514860921,75.01460751373064,2.001462662038602,2.681272328124221,3.58271761881088,10166.0,0,972,15.2,N,N,2.851,,0.238,,,,,,,,,1.01642,MBA,0.2751057683677257,1308.587610270675,140.3672311941723
,2.854410611086547,0.1141949799371558,14.89486076918707,274.042747497893,297.2082051065966,2.528451248621114,3.18036997355198,4.8226181135406,1.0,9,10,16.4,N,N,2.667,,0.068,,,,,,,,,1.55798,MBA,0.2043757685478322,1761.461265970703,32.82098927430718
,2.541820849487685,0.1940247105673346,13.62905718721666,36.21148004120594,301.8218914250136,2.048644794851821,3.03499690412355,4.05252412420165,9126.0,0,2367,14.5,N,N,3.658,,0.191,,,,,,,,,1.07654,MBA,0.2432129342503855,1480.184436364652,61.27657121050086
,3.054720215437744,0.0624720373097591,15.15261774609685,316.2333205088768,51.22381603082219,2.863885620168042,3.245554810707446,5.33906687552649,7708.0,0,727,14.1,N,N,4.561,,0.281,,,,,,,,,1.88072,MBA,0.1846064689478839,1950.09417628605,110.0345273919733
